{
  "type": "FeatureCollection",
  "features": [
    {
      "type": "Feature",
      "properties": {
        "norad_id": 35744,
        "name": "IRIDIUM 33 DEB",
        "group": "iridium-33-debris",
        "lat": -13.008633414001084,
        "lon": -32.643554160899576,
        "alt_km": 672.0711669619977,
        "timestamp": "2025-12-06T14:35:37.511533+00:00",
        "meta_object_name": "IRIDIUM 33 DEB",
        "meta_object_id": "1997-051RX",
        "meta_epoch": "2025-12-06T06:29:21.230304",
        "meta_mean_motion": 14.70859425,
        "meta_eccentricity": 0.00195136,
        "meta_inclination": 86.3283,
        "meta_ra_of_asc_node": 328.359,
        "meta_arg_of_pericenter": 216.4074,
        "meta_mean_anomaly": 143.5816,
        "meta_ephemeris_type": 0,
        "meta_classification_type": "U",
        "meta_norad_cat_id": 35744,
        "meta_element_set_no": 999,
        "meta_rev_at_epoch": 87236,
        "meta_bstar": 0.0021482405,
        "meta_mean_motion_dot": 0.00013207,
        "meta_mean_motion_ddot": 0,
        "tle_line1": "1 35744U 97051RX  25340.27038461  .00013207  00000+0  21482-2 0  9991",
        "tle_line2": "2 35744  86.3283 328.3590 0019513 216.4074 143.5816 14.70859425872367"
      },
      "geometry": {
        "type": "Point",
        "coordinates": [
          -32.643554160899576,
          -13.008633414001084
        ]
      }
    },
    {
      "type": "Feature",
      "properties": {
        "norad_id": 35797,
        "name": "IRIDIUM 33 DEB",
        "group": "iridium-33-debris",
        "lat": 2.916109910825743,
        "lon": 152.6020501371417,
        "alt_km": 615.5632075583962,
        "timestamp": "2025-12-06T14:35:37.511542+00:00",
        "meta_object_name": "IRIDIUM 33 DEB",
        "meta_object_id": "1997-051SF",
        "meta_epoch": "2025-12-06T07:19:06.224160",
        "meta_mean_motion": 14.82493357,
        "meta_eccentricity": 0.00123708,
        "meta_inclination": 86.3354,
        "meta_ra_of_asc_node": 332.9283,
        "meta_arg_of_pericenter": 170.2941,
        "meta_mean_anomaly": 189.8523,
        "meta_ephemeris_type": 0,
        "meta_classification_type": "U",
        "meta_norad_cat_id": 35797,
        "meta_element_set_no": 999,
        "meta_rev_at_epoch": 87245,
        "meta_bstar": 0.0032096309,
        "meta_mean_motion_dot": 0.00025886,
        "meta_mean_motion_ddot": 0,
        "tle_line1": "1 35797U 97051SF  25340.30493315  .00025886  00000+0  32096-2 0  9995",
        "tle_line2": "2 35797  86.3354 332.9283 0012370 170.2941 189.8523 14.82493357872457"
      },
      "geometry": {
        "type": "Point",
        "coordinates": [
          152.6020501371417,
          2.916109910825743
        ]
      }
    },
    {
      "type": "Feature",
      "properties": {
        "norad_id": 35806,
        "name": "IRIDIUM 33 DEB",
        "group": "iridium-33-debris",
        "lat": -38.89268510883434,
        "lon": 20.3722077632646,
        "alt_km": 716.2358996047433,
        "timestamp": "2025-12-06T14:35:37.511552+00:00",
        "meta_object_name": "IRIDIUM 33 DEB",
        "meta_object_id": "1997-051SQ",
        "meta_epoch": "2025-12-04T10:02:10.629312",
        "meta_mean_motion": 14.57216644,
        "meta_eccentricity": 0.0016293,
        "meta_inclination": 86.3444,
        "meta_ra_of_asc_node": 24.2921,
        "meta_arg_of_pericenter": 100.3315,
        "meta_mean_anomaly": 259.9731,
        "meta_ephemeris_type": 0,
        "meta_classification_type": "U",
        "meta_norad_cat_id": 35806,
        "meta_element_set_no": 999,
        "meta_rev_at_epoch": 86203,
        "meta_bstar": 0.0027811,
        "meta_mean_motion_dot": 0.00012613,
        "meta_mean_motion_ddot": 0,
        "tle_line1": "1 35806U 97051SQ  25338.41817858  .00012613  00000+0  27811-2 0  9990",
        "tle_line2": "2 35806  86.3444  24.2921 0016293 100.3315 259.9731 14.57216644862032"
      },
      "geometry": {
        "type": "Point",
        "coordinates": [
          20.3722077632646,
          -38.89268510883434
        ]
      }
    },
    {
      "type": "Feature",
      "properties": {
        "norad_id": 35809,
        "name": "IRIDIUM 33 DEB",
        "group": "iridium-33-debris",
        "lat": -77.15189835744695,
        "lon": -38.215631782386914,
        "alt_km": 644.3683741081031,
        "timestamp": "2025-12-06T14:35:37.511562+00:00",
        "meta_object_name": "IRIDIUM 33 DEB",
        "meta_object_id": "1997-051ST",
        "meta_epoch": "2025-12-06T06:48:24.450912",
        "meta_mean_motion": 14.75488502,
        "meta_eccentricity": 0.00096585,
        "meta_inclination": 86.3276,
        "meta_ra_of_asc_node": 338.2877,
        "meta_arg_of_pericenter": 270.8385,
        "meta_mean_anomaly": 89.1727,
        "meta_ephemeris_type": 0,
        "meta_classification_type": "U",
        "meta_norad_cat_id": 35809,
        "meta_element_set_no": 999,
        "meta_rev_at_epoch": 86712,
        "meta_bstar": 0.0029776157,
        "meta_mean_motion_dot": 0.00020329,
        "meta_mean_motion_ddot": 0,
        "tle_line1": "1 35809U 97051ST  25340.28361633  .00020329  00000+0  29776-2 0  9991",
        "tle_line2": "2 35809  86.3276 338.2877 0009658 270.8385  89.1727 14.75488502867120"
      },
      "geometry": {
        "type": "Point",
        "coordinates": [
          -38.215631782386914,
          -77.15189835744695
        ]
      }
    },
    {
      "type": "Feature",
      "properties": {
        "norad_id": 35846,
        "name": "IRIDIUM 33 DEB",
        "group": "iridium-33-debris",
        "lat": 59.7988047834884,
        "lon": 67.70985752774843,
        "alt_km": 750.405006736687,
        "timestamp": "2025-12-06T14:35:37.511572+00:00",
        "meta_object_name": "IRIDIUM 33 DEB",
        "meta_object_id": "1997-051SW",
        "meta_epoch": "2025-11-15T14:04:07.017312",
        "meta_mean_motion": 14.42992821,
        "meta_eccentricity": 0.00163082,
        "meta_inclination": 86.3745,
        "meta_ra_of_asc_node": 70.4244,
        "meta_arg_of_pericenter": 263.1259,
        "meta_mean_anomaly": 96.8086,
        "meta_ephemeris_type": 0,
        "meta_classification_type": "U",
        "meta_norad_cat_id": 35846,
        "meta_element_set_no": 999,
        "meta_rev_at_epoch": 70937,
        "meta_bstar": 0.0011049939,
        "meta_mean_motion_dot": 3.722e-05,
        "meta_mean_motion_ddot": 0,
        "tle_line1": "1 35846U 97051SW  25319.58619233  .00003722  00000+0  11050-2 0  9997",
        "tle_line2": "2 35846  86.3745  70.4244 0016308 263.1259  96.8086 14.42992821709373"
      },
      "geometry": {
        "type": "Point",
        "coordinates": [
          67.70985752774843,
          59.7988047834884
        ]
      }
    },
    {
      "type": "Feature",
      "properties": {
        "norad_id": 35848,
        "name": "IRIDIUM 33 DEB",
        "group": "iridium-33-debris",
        "lat": 10.12376208081796,
        "lon": -161.7611003768976,
        "alt_km": 633.3049525361066,
        "timestamp": "2025-12-06T14:35:37.511582+00:00",
        "meta_object_name": "IRIDIUM 33 DEB",
        "meta_object_id": "1997-051SY",
        "meta_epoch": "2025-12-01T10:21:45.439488",
        "meta_mean_motion": 14.7824162,
        "meta_eccentricity": 0.00067103,
        "meta_inclination": 86.3925,
        "meta_ra_of_asc_node": 21.2088,
        "meta_arg_of_pericenter": 240.9704,
        "meta_mean_anomaly": 119.0844,
        "meta_ephemeris_type": 0,
        "meta_classification_type": "U",
        "meta_norad_cat_id": 35848,
        "meta_element_set_no": 999,
        "meta_rev_at_epoch": 66523,
        "meta_bstar": 0.0018930249,
        "meta_mean_motion_dot": 0.00013775,
        "meta_mean_motion_ddot": 0,
        "tle_line1": "1 35848U 97051SY  25335.43177592  .00013775  00000+0  18930-2 0  9991",
        "tle_line2": "2 35848  86.3925  21.2088 0006710 240.9704 119.0844 14.78241620665238"
      },
      "geometry": {
        "type": "Point",
        "coordinates": [
          -161.7611003768976,
          10.12376208081796
        ]
      }
    },
    {
      "type": "Feature",
      "properties": {
        "norad_id": 35850,
        "name": "IRIDIUM 33 DEB",
        "group": "iridium-33-debris",
        "lat": 48.47938259190285,
        "lon": 162.8989684937622,
        "alt_km": 628.2232478531832,
        "timestamp": "2025-12-06T14:35:37.511592+00:00",
        "meta_object_name": "IRIDIUM 33 DEB",
        "meta_object_id": "1997-051TA",
        "meta_epoch": "2025-12-06T07:30:15.621984",
        "meta_mean_motion": 14.78601393,
        "meta_eccentricity": 0.00083892,
        "meta_inclination": 86.3487,
        "meta_ra_of_asc_node": 347.1693,
        "meta_arg_of_pericenter": 210.267,
        "meta_mean_anomaly": 149.8067,
        "meta_ephemeris_type": 0,
        "meta_classification_type": "U",
        "meta_norad_cat_id": 35850,
        "meta_element_set_no": 999,
        "meta_rev_at_epoch": 71262,
        "meta_bstar": 0.0028291764,
        "meta_mean_motion_dot": 0.00020775,
        "meta_mean_motion_ddot": 0,
        "tle_line1": "1 35850U 97051TA  25340.31268081  .00020775  00000+0  28292-2 0  9991",
        "tle_line2": "2 35850  86.3487 347.1693 0008389 210.2670 149.8067 14.78601393712623"
      },
      "geometry": {
        "type": "Point",
        "coordinates": [
          162.8989684937622,
          48.47938259190285
        ]
      }
    }
  ]
}